[{"OBJECT_NAME":"STARLINK-2741","OBJECT_ID":"2021-044AY","EPOCH":"2026-03-09T10:45:00.319104","MEAN_MOTION":15.30197658,"ECCENTRICITY":0.00012471,"INCLINATION":53.1596,"RA_OF_ASC_NODE":79.049,"ARG_OF_PERICENTER":97.7321,"MEAN_ANOMALY":262.3821,"EPHEMERIS_TYPE":0,"CLASSIFICATION_TYPE":"U","NORAD_CAT_ID":48684,"ELEMENT_SET_NO":999,"REV_AT_EPOCH":26429,"BSTAR":1.7768774e-5,"MEAN_MOTION_DOT":1.67e-6,"MEAN_MOTION_DDOT":0},{"OBJECT_NAME":"JILIN-1 GAOFEN 03D50","OBJECT_ID":"2022-167J","EPOCH":"2026-03-09T22:35:59.947584","MEAN_MOTION":15.32279726,"ECCENTRICITY":0.00065764,"INCLINATION":97.6731,"RA_OF_ASC_NODE":232.9458,"ARG_OF_PERICENTER":101.1473,"MEAN_ANOMALY":259.0507,"EPHEMERIS_TYPE":0,"CLASSIFICATION_TYPE":"U","NORAD_CAT_ID":54690,"ELEMENT_SET_NO":999,"REV_AT_EPOCH":18014,"BSTAR":0.00049467973,"MEAN_MOTION_DOT":0.00015359,"MEAN_MOTION_DDOT":0}]
